221P/LINEAR,e,11.5017,229.5778,39.7771,3.447325,0.1539858,0.49709636,107.2435,11/16.0/2023,2000,g 14.5,4.0
# From MPC 92277
222P/LINEAR,e,5.0963,6.7879,346.2782,2.897825,0.1998001,0.71471633,324.2579,11/16.0/2023,2000,g 20.0,4.0
# From MPEC 2023-A50
223P/Skiff,e,27.0159,346.7523,37.9101,4.158314,0.1162327,0.41659135,203.5545,11/16.0/2023,2000,g 12.0,4.0
# From MPEC 2023-BF4
224P/LINEAR-NEAT,e,13.3058,40.0368,16.7245,3.444772,0.1541570,0.40589275,63.4996,11/16.0/2023,2000,g 15.5,4.0
# From MPEC 2023-UR6
225P/LINEAR,e,21.3659,14.2032,3.9061,3.648551,0.1414241,0.63854714,14.1372,11/16.0/2023,2000,g 18.0,4.0
# From MPEC 2023-VM5
226P/Pigott-LINEAR-Kowalski,e,44.0454,54.0126,341.0713,3.767462,0.1347816,0.52919475,354.4428,11/16.0/2023,2000,g 12.5,4.0
# From MPEC 2023-VM5
227P/Catalina-LINEAR,e,7.5088,36.8104,105.5562,3.436327,0.1547257,0.52749376,342.4804,11/16.0/2023,2000,g 16.5,2.0
# From MPEC 2022-HC2
228P/LINEAR,e,7.9132,30.9821,114.7552,4.165144,0.1159469,0.17662093,156.3277,11/16.0/2023,2000,g 14.1,4.0
# From MPC106349
229P/Gibbs,e,26.0980,157.9394,224.0946,3.924626,0.1267671,0.37799621,299.7091,11/16.0/2023,2000,g 13.0,4.0
# From MPEC 2023-KD6
230P/LINEAR,e,15.4682,106.9579,313.5009,3.453686,0.1535606,0.54567857,93.1371,11/16.0/2023,2000,g 13.0,4.0
# From MPEC 2023-SQ0
231P/LINEAR-NEAT,e,12.2788,132.9003,44.1344,4.052419,0.1208182,0.24124874,195.7442,11/16.0/2023,2000,g 14.5,2.0
# From MPC112394
232P/Hill,e,14.6444,56.0302,53.2091,4.473176,0.1041790,0.33535078,175.4790,11/16.0/2023,2000,g 11.5,4.0
# From MPEC 2021-N06
233P/La Sagra,e,11.2888,74.9005,26.9767,3.027656,0.1870873,0.41259074,213.2713,11/16.0/2023,2000,g 15.0,4.0
# From MPEC 2022-K19
234P/LINEAR,e,11.5355,179.5669,357.4009,3.795620,0.1332846,0.25673123,314.3467,11/16.0/2023,2000,g 12.0,4.0
# From MPC110497
235P/LINEAR,e,9.9538,204.7192,345.9668,3.529831,0.1486186,0.41244011,244.1101,11/16.0/2023,2000,g 12.0,4.0
# From MPEC 2023-J29
236P/LINEAR,e,16.3549,245.5689,119.3822,3.726609,0.1370040,0.50937607,298.9356,11/16.0/2023,2000,g 14.0,4.0
# From MPEC 2023-VM5
237P/LINEAR,e,14.0166,245.3593,25.2691,3.510108,0.1498730,0.43388815,27.7726,11/16.0/2023,2000,g 14.5,2.0
# From MPEC 2023-UR6
238P/Read,e,1.2640,51.6286,324.2255,3.165615,0.1749915,0.25128539,92.5000,11/16.0/2023,2000,g 14.5,4.0
# From MPEC 2021-F20
239P/LINEAR,e,11.3073,255.9440,220.3427,4.466207,0.1044229,0.63083570,184.9662,11/16.0/2023,2000,g 17.5,2.0
# From MPEC 2023-CD7
240P/NEAT,e,23.5361,74.9144,351.9874,3.862717,0.1298269,0.45021121,260.6966,11/16.0/2023,2000,g 11.0,4.0
# From MPEC 2022-J42
241P/LINEAR,e,21.0972,305.4820,111.4836,4.923869,0.0902078,0.61047591,76.0335,11/16.0/2023,2000,g 13.5,4.0
# From MPEC 2023-VM5
242P/Spahr,e,32.4818,180.3770,244.9487,5.522176,0.0759519,0.28087927,329.3081,11/16.0/2023,2000,g  8.0,4.0
# From MPEC 2022-K19
243P/NEAT,e,7.6429,87.6521,283.6386,3.828918,0.1315498,0.36063704,250.5324,11/16.0/2023,2000,g 12.5,4.0
# From MPEC 2023-VM5
244P/Scotti,e,2.2591,354.0037,93.2188,4.899192,0.0908903,0.19968755,32.9790,11/16.0/2023,2000,g  9.0,4.0
# From MPEC 2022-CN4
245P/WISE,e,21.1799,316.8893,316.5863,4.049221,0.1209614,0.45575272,255.1944,11/16.0/2023,2000,g 14.0,4.0
# From MPEC 2023-VM5
246P/NEAT,e,16.4520,76.2471,180.2467,4.056444,0.1206385,0.28957175,119.2729,11/16.0/2023,2000,g 10.5,4.0
# From MPEC 2021-F20
247P/LINEAR,e,13.6594,54.0131,47.4268,3.966293,0.1247748,0.62514161,225.8457,11/16.0/2023,2000,g 16.5,2.0
# From MPC 75730
248P/Gibbs,e,6.3513,207.8229,209.9020,5.987130,0.0672785,0.63933671,315.0012,11/16.0/2023,2000,g 14.0,4.0
# From MPEC 2022-YN2
249P/LINEAR,e,8.3854,239.0491,65.7564,2.764145,0.2144682,0.81944094,264.8442,11/16.0/2023,2000,g 15.5,4.0
# From MPC110497
250P/Larson,e,13.1549,73.3007,46.0058,3.772580,0.1345074,0.39870807,286.2249,11/16.0/2023,2000,g 14.5,4.0
# From MPC104795
251P/LINEAR,e,23.3873,219.3230,31.2451,3.513908,0.1496299,0.50446368,346.6468,11/16.0/2023,2000,g 16.5,2.0
# From MPEC 2021-S45
252P/LINEAR,e,10.4149,190.9098,343.3936,3.051249,0.1849216,0.67083988,158.7458,11/16.0/2023,2000,g 17.5,4.0
# From MPEC 2020-FB5
253P/PANSTARRS,e,4.9451,146.9114,230.7402,3.462837,0.1529523,0.41461356,308.0088,11/16.0/2023,2000,g 14.5,4.0
# From MPEC 2023-FK0
254P/McNaught,e,32.5551,129.1880,219.7249,4.617681,0.0993272,0.31930244,113.4066,11/16.0/2023,2000,g 11.0,4.0
# From NK 2214
255P/Levy,e,13.3978,275.6412,186.0300,2.942434,0.1952738,0.71176419,84.8225,11/16.0/2023,2000,g  9.0,4.0
# From MPEC 2023_O39
256P/LINEAR,e,27.6224,81.3271,124.1663,4.638457,0.0986606,0.41789076,24.5537,11/16.0/2023,2000,g 14.0,2.0
# From MPEC 2023-A50
257P/Catalina,e,20.2198,207.7125,117.7886,3.765640,0.1348795,0.42951680,156.7081,11/16.0/2023,2000,g 11.5,4.0
# From MPEC 2021-U31
258P/PANSTARRS,e,6.7487,126.2322,25.6421,4.391960,0.1070820,0.20874840,133.5267,11/16.0/2023,2000,g 13.0,4.0
# From MPC106349
259P/Garradd,e,15.8984,51.3710,257.5627,2.728871,0.2186400,0.33883515,141.2366,11/16.0/2023,2000,g 15.5,4.0
# From MPEC 2022-O01
260P/McNaught,e,15.0534,349.3449,18.4580,3.623372,0.1429008,0.60922975,218.1683,11/16.0/2023,2000,g 13.5,4.0
# From MPEC 2021-J28
261P/Larson,e,6.0718,291.0766,67.3283,3.490386,0.1511451,0.42317918,243.2998,11/16.0/2023,2000,g 14.0,4.0
# From MPC 82322
262P/McNaught-Russell,e,29.2796,217.8886,171.0533,6.870172,0.0547334,0.81640814,218.5875,11/16.0/2023,2000,g 13.5,4.0
# From MPEC 2023_O39
263P/Gibbs,e,11.5228,105.5026,35.0396,3.041577,0.1858044,0.59361779,53.7735,11/16.0/2023,2000,g 18.0,4.0
# From MPC114608
264P/Larsen,e,26.0634,219.6469,344.3223,3.923378,0.1268276,0.36565657,206.7124,11/16.0/2023,2000,g 13.0,4.0
# From MPC 79870
265P/LINEAR,e,14.3590,342.9537,33.4965,4.258291,0.1121634,0.64746332,113.2560,11/16.0/2023,2000,g 14.5,4.0
# From MPEC 2021-F20
266P/Christensen,e,3.4270,4.9753,97.6810,3.530106,0.1486013,0.34041257,193.9374,11/16.0/2023,2000,g 14.7,4.0
# From MPC114608
267P/LONEOS,e,6.1430,228.6032,114.2236,3.209410,0.1714219,0.61426446,332.4346,11/16.0/2023,2000,g 19.5,4.0
# From MPC 92277
268P/Bernardi,e,15.6273,124.8926,359.8875,4.636703,0.0987166,0.47350302,320.7422,11/16.0/2023,2000,g 14.0,4.0
# From MPEC 2023-J29
269P/Jedicke,e,7.0840,241.7678,225.6596,7.064189,0.0524941,0.43245917,174.8695,11/16.0/2023,2000,g 10.0,4.0
# From MPC 88332
270P/Gehrels,e,2.9250,223.0349,209.8095,6.654672,0.0574135,0.46974416,218.4749,11/16.0/2023,2000,g  8.0,4.0
# From MPC 92277
271P/van Houten-Lemmon,e,6.8718,9.3368,36.4638,7.033548,0.0528375,0.39612765,199.0926,11/16.0/2023,2000,g 11.0,4.0
# From MPEC 2023-D41
272P/NEAT,e,18.0746,109.4508,27.8845,4.461754,0.1045793,0.45504035,50.9272,11/16.0/2023,2000,g 16.0,2.0
# From MPC 82723
273P/Pons-Gambart,e,36.6455,320.4116,20.3436,32.03580,0.0054356,0.97410694,0.0000,12/20.4317/2012,2000,g 11.5,4.0
# From MPEC 2023-M14
274P/Tombaugh-Tenagra,e,15.8182,81.3203,38.4694,4.377703,0.1076056,0.43981970,63.1067,11/16.0/2023,2000,g 13.9,4.0
# From MPC 81862
275P/Hermann,e,21.2624,348.6991,173.9408,5.786180,0.0708135,0.71321536,283.6759,11/16.0/2023,2000,g 17.0,4.0
# From MPEC 2023-VM5
276P/Vorobjov,e,14.8126,211.3394,199.3907,5.331767,0.0800566,0.26883088,328.6319,11/16.0/2023,2000,g 11.5,4.0
# From MPEC 2021-F20
277P/LINEAR,e,16.7847,276.2790,152.3708,3.853468,0.1302946,0.50639471,136.8374,11/16.0/2023,2000,g 15.1,4.0
# From MPEC 2021-S45
278P/McNaught,e,6.6872,15.3077,237.4699,3.675328,0.1398814,0.43881300,162.2332,11/16.0/2023,2000,g 14.0,4.0
# From MPEC 2023-VM5
279P/LaSagra,e,5.0492,346.1977,5.8260,3.575730,0.1457662,0.39940879,30.6947,11/16.0/2023,2000,g 14.0,4.0
# From MPEC 2023-J95
280P/Larsen,e,11.7725,131.3777,104.7315,4.528588,0.1022727,0.41700825,10.5668,11/16.0/2023,2000,g 12.5,4.0
# From MPEC 2023-D41
281P/MOSS,e,4.7177,87.1726,26.7068,4.880919,0.0914012,0.17339350,26.2408,11/16.0/2023,2000,g 11.0,4.0
# From MPC133426
282P/,e,5.8118,217.6213,9.2562,4.237295,0.1129981,0.18778791,85.0748,11/16.0/2023,2000,g 13.5,2.0
# From MPEC 2022-K19
283P/Spacewatch,e,14.4577,161.1233,22.1862,4.134029,0.1172583,0.48437047,93.7232,11/16.0/2023,2000,g 16.0,2.0
# From MPEC 2023-D41
284P/McNaught,e,11.8590,144.2678,202.4660,3.677094,0.1397806,0.37505779,111.0634,11/16.0/2023,2000,g 13.0,4.0
# From MPEC 2023-B57
285P/LINEAR,e,25.0374,185.5031,178.3916,4.506890,0.1030122,0.61854561,31.7076,11/16.0/2023,2000,g 15.0,4.0
# From MPEC 2022-X67
286P/Christensen,e,17.0701,283.7146,24.8355,4.108138,0.1183686,0.42659960,65.4317,11/16.0/2023,2000,g 14.0,4.0
# From MPEC 2023-VM5
287P/Christensen,e,16.3198,139.0395,189.1850,4.165344,0.1159385,0.27152773,15.3794,11/16.0/2023,2000,g 13.5,4.0
# From MPC133426
288P/,e,3.2383,83.1077,280.2664,3.048679,0.1851554,0.20031182,115.5973,11/16.0/2023,2000,g 16.0,2.0
# From MPEC 2023-HD1
289P/Blanpain,e,5.9003,68.8923,9.8496,3.044778,0.1855114,0.68632799,264.3969,11/16.0/2023,2000,g 19.7,4.0
# From MPC 95214
290P/Jager,e,20.0529,302.6816,181.8189,6.216309,0.0635924,0.62770933,227.9762,11/16.0/2023,2000,g 10.5,4.0
# From MPEC 2023-VM5
291P/NEAT,e,6.3097,237.6599,173.5076,4.534563,0.1020707,0.43428618,20.0017,11/16.0/2023,2000,g 13.0,4.0
# From MPEC 2022-K19
292P/Li,e,24.3091,90.9058,319.5895,6.099500,0.0654279,0.58995190,233.4852,11/16.0/2023,2000,g 12.5,4.0
# From MPEC 2022-L66
293P/Spacewatch,e,9.0610,78.3649,40.9514,3.639605,0.1419459,0.41885885,150.6864,11/16.0/2023,2000,g 14.5,4.0
# From MPEC 2020-SI8
294P/LINEAR,e,18.1559,311.7685,235.5263,3.191477,0.1728688,0.60168029,250.3570,11/16.0/2023,2000,g 15.5,4.0
# From MPEC 2022-K19
295P/LINEAR,e,21.0757,7.4183,72.9352,5.303290,0.0807023,0.61745078,280.9294,11/16.0/2023,2000,g 12.0,4.0
# From MPEC 2021-N06
296P/Garradd,e,25.2788,263.5265,349.9277,3.489586,0.1511970,0.47956449,174.5866,11/16.0/2023,2000,g 14.0,4.0
# From MPC102956
297P/Beshore,e,10.4034,95.8749,136.7130,3.487731,0.1513176,0.31892029,153.8155,11/16.0/2023,2000,g 15.0,4.0
# From MPC114609
298P/Christensen,e,7.8706,52.8124,100.5961,3.589552,0.1449252,0.38632143,169.0363,11/16.0/2023,2000,g 15.0,4.0
# From MPEC 2023-OA6
